{{Infobox Planet  
| name = 354 Eleonora
| image = 
| caption = 
| discovery=yes | physical_characteristics = yes | bgcolour=#FFFFC0
| discovery_ref = 
| discoverer = [[奥古斯特·沙卢瓦|奥古斯特·沙卢瓦]]
| discovery_site = [[尼斯|尼斯]]
| discovered =  1893年1月17日
| mp_name = 354
| alt_names = 1893 A
| named_after = 
| mp_category=[[小行星带|主带小行星]]
| orbit_ref = <ref>[http://ssd.jpl.nasa.gov/sbdb.cgi?sstr=354 354 Eleonora]</ref>
| epoch = 2011年8月27日
| semimajor= 2.798469089751205AU
| perihelion=2.477574467675817AU
| aphelion=3.119363711826593[[天文单位|AU]]
| eccentricity =0.1146679172732677	
| period =1709.933411397889[[日|地球日]]<br>4.68[[年|地球年]] 
| inclination=18.39248691818155[[角度|°]]
| asc_node=140.3948791399528°	
| arg_peri=6.359763758259557°
| mean_anomaly=103.840322896622°
| avg_speed=17.8 km/s
 | dimensions=155.17千米
 | mass=
 | density=
 | surface_grav=
 | escape_velocity=
 | rotation=4.277[[小时|小时]]
 | spectral_type=[[S-型小行星|S]]
 | magnitude=
 | abs_magnitude=6.44
 | albedo=0.1948	
 | single_temperature=
}}
'''小行星354'''（'''354 Eleonora'''），是由[[法国|法国]][[天文学家|天文学家]][[奥古斯特·沙卢瓦|奥古斯特·沙卢瓦]]于1893年1月17日在法国[[尼斯|尼斯]]发现的[[小行星带|主带]][[小行星|小行星]]。

小行星354的命名依据不明。

在1968年和2010年，小行星354和地球的距离相对较近，其[[视星等|视星等]]达到9.31等，在小行星中算是非常少见。

== 参考资料 ==
{{Reflist}}

{{Minor Planet Number|(353)[[小行星353|小行星353]]|(355)[[小行星355|小行星355]]}}

[[Category:小行星带天体|Category:小行星带天体]]
[[Category:1893年发现的小行星|Category:1893年发现的小行星]]
[[Category:S-型小行星|Category:S-型小行星]]